[{"OBJECT_NAME":"ONEWEB-0388","OBJECT_ID":"2021-090AM","EPOCH":"2026-03-09T17:00:35.374464","MEAN_MOTION":13.1972528,"ECCENTRICITY":0.00015507,"INCLINATION":87.9226,"RA_OF_ASC_NODE":324.7919,"ARG_OF_PERICENTER":78.5891,"MEAN_ANOMALY":281.5416,"EPHEMERIS_TYPE":0,"CLASSIFICATION_TYPE":"U","NORAD_CAT_ID":49314,"ELEMENT_SET_NO":999,"REV_AT_EPOCH":21329,"BSTAR":-0.00066582135,"MEAN_MOTION_DOT":-2.54e-6,"MEAN_MOTION_DDOT":0},{"OBJECT_NAME":"FENGYUN 1C DEB","OBJECT_ID":"1999-025CZF","EPOCH":"2026-03-08T20:55:32.220480","MEAN_MOTION":13.65652618,"ECCENTRICITY":0.02740184,"INCLINATION":99.847,"RA_OF_ASC_NODE":45.4115,"ARG_OF_PERICENTER":65.7914,"MEAN_ANOMALY":297.1607,"EPHEMERIS_TYPE":0,"CLASSIFICATION_TYPE":"U","NORAD_CAT_ID":32362,"ELEMENT_SET_NO":999,"REV_AT_EPOCH":92305,"BSTAR":0.0040921687,"MEAN_MOTION_DOT":4.285e-5,"MEAN_MOTION_DDOT":0}]
